ORBCOMM FM24            
1 25478U 98053D   25176.43429961  .00000464  00000+0  19827-3 0  9993
2 25478  45.0069 229.9940 0004529 260.1926  99.8411 14.38115504398636
ORBCOMM FM25            
1 25479U 98053E   25176.40579432  .00000388  00000+0  17326-3 0  9997
2 25479  45.0062 228.4004 0006656 273.2387  86.7699 14.38088205398926
ORBCOMM FM26            
1 25480U 98053F   25176.49217464  .00000353  00000+0  16507-3 0  9994
2 25480  45.0053 224.5084 0007955 290.4869  69.5125 14.37147832398847
ORBCOMM FM27            
1 25481U 98053G   25176.46280596  .00000424  00000+0  18498-3 0  9998
2 25481  45.0042 228.3303 0003092 258.0128 102.0374 14.38118611398863
ORBCOMM FM28            
1 25482U 98053H   25176.29099515  .00000377  00000+0  16924-3 0  9998
2 25482  45.0039 166.6322 0006371 321.4934  38.5459 14.38302653399520
ORBCOMM FM30            
1 25980U 99065A   25176.34225732  .00000481  00000+0  20716-3 0  9993
2 25980  45.0326  51.1132 0007111  46.7117 313.4323 14.37313388335624
ORBCOMM FM31            
1 25981U 99065B   25176.31587689  .00000507  00000+0  21606-3 0  9991
2 25981  45.0239  44.7252 0004334  68.7272 291.4039 14.37252462335173
ORBCOMM FM32            
1 25982U 99065C   25176.36777766  .00000470  00000+0  20757-3 0  9999
2 25982  45.0165  61.1129 0006616  63.4423 296.7102 14.36296646335779
